[
  (40346,
  42603,
  "U",
  1974,
  89,
  "FU",
  2024,
  320.69622878,
  4.56e-6,
  0.0,
  "459.3",
  0,
  999,
  0,
  42603,
  100.8776,
  120.0652,
  0.0208632,
  358.368,
  1.6675,
  12.17318557,
  48787,
  5,
  {
    tle_line1:
      "1 42603U 74089FU  24320.69622878  .00000456  00000-0  45930-2 0  9990",
    tle_line2:
      "2 42603 100.8776 120.0652 0208632 358.3680   1.6675 12.17318557487875",
  },
  None,
  datetime.datetime(2024, 12, 3, 18, 51, 13, 422943),
  "{}",
  "1770.782",
  "1437.706",
  "100.8776"),
  (40347,
  42606,
  "U",
  1974,
  89,
  "FX",
  2024,
  331.56902876,
  4.41e-6,
  0.0,
  "224.4",
  0,
  999,
  5,
  42606,
  102.1649,
  207.9009,
  0.0185685,
  334.5281,
  139.1144,
  12.72177492,
  50026,
  7,
  {
    tle_line1:
      "1 42606U 74089FX  24331.56902876  .00000441  00000-0  22440-2 0  9995",
    tle_line2:
      "2 42606 102.1649 207.9009 0185685 334.5281 139.1144 12.72177492500267",
  },
  None,
  datetime.datetime(2024, 12, 3, 18, 51, 13, 424519),
  "{}",
  "1517.013",
  "1229.156",
  "102.1649"),
  (40348,
  42608,
  "U",
  1974,
  89,
  "FZ",
  2024,
  336.87000802,
  0.0,
  0.0,
  "30.987",
  0,
  999,
  3,
  42608,
  102.4775,
  312.0255,
  0.0073472,
  134.1677,
  226.5448,
  12.28078332,
  49439,
  4,
  {
    tle_line1:
      "1 42608U 74089FZ  24336.87000802 -.00000010  00000-0  30987-3 0  9993",
    tle_line2:
      "2 42608 102.4775 312.0255 0073472 134.1677 226.5448 12.28078332494394",
  },
  None,
  datetime.datetime(2024, 12, 3, 18, 51, 13, 427400),
  "{}",
  "1615.856",
  "1499.246",
  "102.4775"),
  (40349,
  42610,
  "U",
  1974,
  89,
  "GB",
  2024,
  336.45469779,
  4.1e-7,
  0.0,
  "60.364",
  0,
  999,
  7,
  42610,
  101.4633,
  225.6534,
  0.0078238,
  121.168,
  239.7087,
  12.40339096,
  49943,
  9,
  {
    tle_line1:
      "1 42610U 74089GB  24336.45469779  .00000041  00000-0  60364-3 0  9997",
    tle_line2:
      "2 42610 101.4633 225.6534 0078238 121.1680 239.7087 12.40339096499439",
  },
  None,
  datetime.datetime(2024, 12, 3, 18, 51, 13, 428966),
  "{}",
  "1566.845",
  "1443.491",
  "101.4633"),
  (40350,
  42612,
  "U",
  1974,
  89,
  "GD",
  2024,
  337.73068529,
  1.26e-6,
  0.0,
  "85.7",
  0,
  999,
  4,
  42612,
  101.5775,
  322.1643,
  0.0084513,
  91.7075,
  269.3689,
  12.69772079,
  49139,
  3,
  {
    tle_line1:
      "1 42612U 74089GD  24337.73068529  .00000126  00000-0  85700-3 0  9994",
    tle_line2:
      "2 42612 101.5775 322.1643 0084513  91.7075 269.3689 12.69772079491393",
  },
  None,
  datetime.datetime(2024, 12, 3, 18, 51, 13, 430223),
  "{}",
  "1448.461",
  "1317.280",
  "101.5775"),
  (40351,
  42614,
  "U",
  1974,
  89,
  "GF",
  2024,
  334.20084397,
  1.113e-5,
  0.0,
  "672.79",
  0,
  999,
  3,
  42614,
  101.8422,
  117.3024,
  0.0039825,
  192.45,
  345.3413,
  12.59220637,
  99096,
  6,
  {
    tle_line1:
      "1 42614U 74089GF  24334.20084397  .00001113  00000-0  67279-2 0  9993",
    tle_line2:
      "2 42614 101.8422 117.3024 0039825 192.4500 345.3413 12.59220637990966",
  },
  None,
  datetime.datetime(2024, 12, 3, 18, 51, 13, 431542),
  "{}",
  "1457.246",
  "1395.084",
  "101.8422"),
  (40352,
  42615,
  "U",
  1974,
  89,
  "GG",
  2024,
  330.16318354,
  2.32e-6,
  0.0,
  "157.04",
  0,
  999,
  5,
  42615,
  101.7234,
  306.3668,
  0.0075662,
  332.265,
  89.9445,
  12.60565149,
  50637,
  6,
  {
    tle_line1:
      "1 42615U 74089GG  24330.16318354  .00000232  00000-0  15704-2 0  9995",
    tle_line2:
      "2 42615 101.7234 306.3668 0075662 332.2650  89.9445 12.60565149506376",
  },
  None,
  datetime.datetime(2024, 12, 3, 18, 51, 13, 433002),
  "{}",
  "1479.622",
  "1361.608",
  "101.7234"),
  (40353,
  42616,
  "U",
  1974,
  89,
  "GH",
  2024,
  337.85481681,
  2.9e-7,
  0.0,
  "94.427",
  0,
  999,
  7,
  42616,
  101.3964,
  3.7081,
  0.0498517,
  323.1213,
  213.209,
  11.58947617,
  82526,
  2,
  {
    tle_line1:
      "1 42616U 74089GH  24337.85481681  .00000029  00000-0  94427-3 0  9997",
    tle_line2:
      "2 42616 101.3964   3.7081 0498517 323.1213 213.2090 11.58947617825262",
  },
  None,
  datetime.datetime(2024, 12, 3, 18, 51, 13, 434207),
  "{}",
  "2281.254",
  "1458.880",
  "101.3964"),
  (40354,
  42617,
  "U",
  1974,
  89,
  "GJ",
  2024,
  333.46642778,
  2.3e-7,
  0.0,
  "57.272",
  0,
  999,
  8,
  42617,
  101.543,
  50.86,
  0.0181973,
  134.0058,
  294.4897,
  12.19416512,
  49071,
  1,
  {
    tle_line1:
      "1 42617U 74089GJ  24333.46642778  .00000023  00000-0  57272-3 0  9998",
    tle_line2:
      "2 42617 101.5430  50.8600 0181973 134.0058 294.4897 12.19416512490711",
  },
  None,
  datetime.datetime(2024, 12, 3, 18, 51, 13, 435384),
  "{}",
  "1740.177",
  "1449.995",
  "101.5430"),
  (40355,
  42619,
  "U",
  1974,
  89,
  "GL",
  2024,
  336.94151174,
  2.549e-5,
  0.0,
  "417.42",
  0,
  999,
  0,
  42619,
  102.0431,
  216.0398,
  0.0181529,
  223.3054,
  147.5012,
  13.42604966,
  31002,
  6,
  {
    tle_line1:
      "1 42619U 74089GL  24336.94151174  .00002549  00000-0  41742-2 0  9990",
    tle_line2:
      "2 42619 102.0431 216.0398 0181529 223.3054 147.5012 13.42604966310026",
  },
  None,
  datetime.datetime(2024, 12, 3, 18, 51, 13, 436467),
  "{}",
  "1235.336",
  "963.851",
  "102.0431"),
  (40356,
  42620,
  "U",
  1974,
  89,
  "GM",
  2024,
  337.51810661,
  1.19e-6,
  0.0,
  "139.62",
  0,
  999,
  3,
  42620,
  101.0863,
  353.3336,
  0.0147847,
  114.6171,
  247.0368,
  12.23137017,
  20342,
  1,
  {
    tle_line1:
      "1 42620U 74089GM  24337.51810661  .00000119  00000-0  13962-2 0  9993",
    tle_line2:
      "2 42620 101.0863 353.3336 0147847 114.6171 247.0368 12.23137017203421",
  },
  None,
  datetime.datetime(2024, 12, 3, 18, 51, 13, 437956),
  "{}",
  "1696.552",
  "1461.267",
  "101.0863"),
  (40357,
  42621,
  "U",
  1974,
  89,
  "GN",
  2024,
  338.1821391,
  1.11e-6,
  0.0,
  "175.05",
  0,
  999,
  1,
  42621,
  101.046,
  227.1092,
  0.0372549,
  151.6817,
  3.1469,
  11.85308845,
  47729,
  6,
  {
    tle_line1:
      "1 42621U 74089GN  24338.18213910  .00000111  00000-0  17505-2 0  9991",
    tle_line2:
      "2 42621 101.0460 227.1092 0372549 151.6817   3.1469 11.85308845477296",
  },
  None,
  datetime.datetime(2024, 12, 3, 18, 51, 13, 439758),
  "{}",
  "2050.029",
  "1444.603",
  "101.0460"),
  (40358,
  42622,
  "U",
  1974,
  89,
  "GP",
  2024,
  335.41143942,
  4.6e-7,
  0.0,
  "74.465",
  0,
  999,
  8,
  42622,
  101.4012,
  140.5788,
  0.0153132,
  97.0443,
  292.1581,
  12.24198095,
  49272,
  5,
  {
    tle_line1:
      "1 42622U 74089GP  24335.41143942  .00000046  00000-0  74465-3 0  9998",
    tle_line2:
      "2 42622 101.4012 140.5788 0153132  97.0443 292.1581 12.24198095492725",
  },
  None,
  datetime.datetime(2024, 12, 3, 18, 51, 13, 441252),
  "{}",
  "1696.088",
  "1452.533",
  "101.4012"),
  (40359,
  42623,
  "U",
  1974,
  89,
  "GQ",
  2024,
  337.72780032,
  0.0,
  0.0,
  "5.6491",
  0,
  999,
  4,
  42623,
  102.2178,
  334.0238,
  0.0071935,
  141.296,
  219.329,
  12.43782879,
  16245,
  6,
  {
    tle_line1:
      "1 42623U 74089GQ  24337.72780032 -.00000038  00000-0  56491-4 0  9994",
    tle_line2:
      "2 42623 102.2178 334.0238 0071935 141.2960 219.3290 12.43782879162456",
  },
  None,
  datetime.datetime(2024, 12, 3, 18, 51, 13, 443057),
  "{}",
  "1547.214",
  "1434.006",
  "102.2178"),
  (40360,
  42625,
  "U",
  1974,
  89,
  "GS",
  2024,
  333.86711267,
  3.05e-6,
  0.0,
  "249.08",
  0,
  999,
  3,
  42625,
  101.9662,
  302.9505,
  8.97e-5,
  151.0609,
  239.6337,
  12.44038693,
  50168,
  9,
  {
    tle_line1:
      "1 42625U 74089GS  24333.86711267  .00000305  00000-0  24908-2 0  9993",
    tle_line2:
      "2 42625 101.9662 302.9505 0000897 151.0609 239.6337 12.44038693501689",
  },
  None,
  datetime.datetime(2024, 12, 3, 18, 51, 13, 444855),
  "{}",
  "1490.237",
  "1488.825",
  "101.9662"),
  (40361,
  42628,
  "U",
  1974,
  89,
  "GV",
  2024,
  319.64931311,
  0.0,
  0.0,
  "0.0",
  0,
  999,
  7,
  42628,
  101.164,
  265.7295,
  0.0258518,
  65.8665,
  296.9187,
  12.06905461,
  44289,
  1,
  {
    tle_line1:
      "1 42628U 74089GV  24319.64931311 -.00000054  00000-0 -19024-3 0  9997",
    tle_line2:
      "2 42628 101.1640 265.7295 0258518  65.8665 296.9187 12.06905461442891",
  },
  None,
  datetime.datetime(2024, 12, 3, 18, 51, 13, 446775),
  "{}",
  "1857.637",
  "1442.548",
  "101.1640"),
  (40362,
  42629,
  "U",
  1975,
  52,
  "LN",
  2024,
  320.1099503,
  2.18e-6,
  0.0,
  "54.107",
  0,
  999,
  1,
  42629,
  99.7995,
  98.8008,
  0.0073799,
  340.7138,
  19.1196,
  13.30897065,
  99040,
  8,
  {
    tle_line1:
      "1 42629U 75052LN  24320.10995030  .00000218  00000-0  54107-3 0  9991",
    tle_line2:
      "2 42629  99.7995  98.8008 0073799 340.7138  19.1196 13.30897065990408",
  },
  None,
  datetime.datetime(2024, 12, 3, 18, 51, 13, 448757),
  "{}",
  "1198.892",
  "1087.875",
  "99.7995"),
  (40363,
  42631,
  "U",
  1975,
  52,
  "LQ",
  2024,
  338.00003433,
  2.69e-6,
  0.0,
  "44.529",
  0,
  999,
  2,
  42631,
  99.7747,
  243.7288,
  0.0043483,
  249.4313,
  110.2157,
  13.56181173,
  54594,
  3,
  {
    tle_line1:
      "1 42631U 75052LQ  24338.00003433  .00000269  00000-0  44529-3 0  9992",
    tle_line2:
      "2 42631  99.7747 243.7288 0043483 249.4313 110.2157 13.56181173545943",
  },
  None,
  datetime.datetime(2024, 12, 3, 18, 51, 13, 450196),
  "{}",
  "1081.903",
  "1017.307",
  "99.7747"),
  (40364,
  42632,
  "U",
  1975,
  52,
  "LR",
  2024,
  337.83195235,
  3.02e-6,
  0.0,
  "123.12",
  0,
  999,
  7,
  42632,
  99.5663,
  122.9458,
  0.0398344,
  169.6554,
  191.3042,
  12.69865199,
  46906,
  6,
  {
    tle_line1:
      "1 42632U 75052LR  24337.83195235  .00000302  00000-0  12312-2 0  9997",
    tle_line2:
      "2 42632  99.5663 122.9458 0398344 169.6554 191.3042 12.69865199469066",
  },
  None,
  datetime.datetime(2024, 12, 3, 18, 51, 13, 451665),
  "{}",
  "1691.631",
  "1073.351",
  "99.5663"),
  (40365,
  42633,
